NUSAT-26 (M SOMERVILLE) 
1 52184U 22033AD  26201.25494520  .00008026  00000+0  18171-3 0  9998
2 52184  97.2330 280.1030 0007307 123.8536 236.3409 15.43359093109802
NUSAT-33 (ALBANIA-2)    
1 55047U 23001AQ  26201.27935771  .00005196  00000+0  19104-3 0  9997
2 55047  97.3048 261.5523 0004605 290.2790  69.7955 15.28315914197368
NUSAT-35 (WILLIAMINA)   
1 55048U 23001AR  26201.33379046  .00007644  00000+0  22069-3 0  9996
2 55048  97.1829 253.2591 0009828 351.1689   8.9380 15.35901624197491
NUSAT-39 (TIKVAH ALPER) 
1 56201U 23054Z   26201.21783895  .00017927  00000+0  34232-3 0  9994
2 56201  97.3077 111.3085 0001469 282.2101  77.8986 15.48182068183565
NUSAT-38 (MARIA AGNESI) 
1 56202U 23054AA  26201.20230954  .00020609  00000+0  35080-3 0  9990
2 56202  97.3019 112.0483 0008143 304.8610  55.1876 15.51396045183624
NUSAT-37 (JOAN CLARKE)  
1 56203U 23054AB  26201.16912137  .00034176  00000+0  42401-3 0  9995
2 56203  97.2588 108.9285 0008353 130.4621 229.7365 15.59919576183784
NUSAT-40 (C SHOEMAKER)  
1 56943U 23084M   26201.28094576  .00109972  00000+0  50156-3 0  9993
2 56943  97.4877 350.6056 0003677 179.9155 180.2116 15.83485400174038
NUSAT-41 (C PAYNE-G)    
1 56944U 23084N   26201.28356206  .00006234  00000+0  21739-3 0  9997
2 56944  97.5558 338.5370 0007420 190.3136 169.7953 15.29981218172842
NUSAT-42 (M WONENBURGER)
1 56966U 23084AL  26201.30366241  .00013663  00000+0  27552-3 0  9997
2 56966  97.5759 346.8515 0006866 130.6070 229.5777 15.46644675173199
NUSAT-44 (MARIA MITCHE*)
1 59122U 24043AA  26201.30535549  .00006187  00000+0  21625-3 0  9997
2 59122  97.5491 342.0766 0006655 117.1328 243.0592 15.29910469132332
NUSAT-50 (NANCY ROMAN)  
1 60493U 24149AB  26201.19337400  .00005066  00000+0  17504-3 0  9996
2 60493  97.3775 282.2297 0004852  90.2689 269.9108 15.30369458107172
NUSAT-48 (HENRIETTA LE*)
1 60498U 24149AG  26201.18253888  .00004885  00000+0  16913-3 0  9998
2 60498  97.3906 282.5190 0005183 144.2292 215.9296 15.30323327107181
NUSAT-49 (KLARA DAN VO*)
1 60500U 24149AJ  26201.16061560  .00001774  00000+0  64047-4 0  9990
2 60500  97.3795 282.2225 0002875 156.0413 204.0962 15.29826411107176
NUSAT-45 (UZMASAT-1)    
1 62640U 25009AH  26201.21453856  .00004663  00000+0  16389-3 0  9997
2 62640  97.3580 282.1148 0002229 163.8584 196.2728 15.29859320 83974
NUSAT-52                
1 66692U 25276AC  26201.13118105  .00002756  00000+0  13088-3 0  9994
2 66692  97.4189 274.1363 0001747 245.7874 114.3179 15.20064070 35426
NUSAT-51 (YVONNE BRILL) 
1 66740U 25276CC  26201.13063189  .00003293  00000+0  15339-3 0  9997
2 66740  97.4195 274.2829 0002141 210.9190 149.1920 15.20598094 35438
