{"fetched_at":"2026-07-20T18:29:34.965Z","source":"https://celestrak.org/NORAD/elements/gp.php?NAME=NUSAT&FORMAT=JSON","constellation":"satellogic","records":[{"OBJECT_NAME":"NUSAT-26 (M SOMERVILLE)","OBJECT_ID":"2022-033AD","EPOCH":"2026-07-20T06:07:07.265280","CLASSIFICATION_TYPE":"U","MEAN_MOTION":15.43359093,"ECCENTRICITY":0.00073077,"INCLINATION":97.233,"RA_OF_ASC_NODE":280.103,"ARG_OF_PERICENTER":123.8536,"MEAN_ANOMALY":236.3409,"EPHEMERIS_TYPE":0,"NORAD_CAT_ID":52184,"ELEMENT_SET_NO":999,"REV_AT_EPOCH":10980,"BSTAR":0.00018171435,"MEAN_MOTION_DOT":0.00008026,"MEAN_MOTION_DDOT":0},{"OBJECT_NAME":"NUSAT-33 (ALBANIA-2)","OBJECT_ID":"2023-001AQ","EPOCH":"2026-07-20T06:42:16.506144","CLASSIFICATION_TYPE":"U","MEAN_MOTION":15.28315914,"ECCENTRICITY":0.00046058,"INCLINATION":97.3048,"RA_OF_ASC_NODE":261.5523,"ARG_OF_PERICENTER":290.279,"MEAN_ANOMALY":69.7955,"EPHEMERIS_TYPE":0,"NORAD_CAT_ID":55047,"ELEMENT_SET_NO":999,"REV_AT_EPOCH":19736,"BSTAR":0.00019104072,"MEAN_MOTION_DOT":0.00005196,"MEAN_MOTION_DDOT":0},{"OBJECT_NAME":"NUSAT-35 (WILLIAMINA)","OBJECT_ID":"2023-001AR","EPOCH":"2026-07-20T08:00:39.495744","CLASSIFICATION_TYPE":"U","MEAN_MOTION":15.35901624,"ECCENTRICITY":0.00098281,"INCLINATION":97.1829,"RA_OF_ASC_NODE":253.2591,"ARG_OF_PERICENTER":351.1689,"MEAN_ANOMALY":8.938,"EPHEMERIS_TYPE":0,"NORAD_CAT_ID":55048,"ELEMENT_SET_NO":999,"REV_AT_EPOCH":19749,"BSTAR":0.00022069392,"MEAN_MOTION_DOT":0.00007644,"MEAN_MOTION_DDOT":0},{"OBJECT_NAME":"NUSAT-39 (TIKVAH ALPER)","OBJECT_ID":"2023-054Z","EPOCH":"2026-07-20T05:13:41.285280","CLASSIFICATION_TYPE":"U","MEAN_MOTION":15.48182068,"ECCENTRICITY":0.0001469,"INCLINATION":97.3077,"RA_OF_ASC_NODE":111.3085,"ARG_OF_PERICENTER":282.2101,"MEAN_ANOMALY":77.8986,"EPHEMERIS_TYPE":0,"NORAD_CAT_ID":56201,"ELEMENT_SET_NO":999,"REV_AT_EPOCH":18356,"BSTAR":0.00034232056,"MEAN_MOTION_DOT":0.00017927,"MEAN_MOTION_DDOT":0},{"OBJECT_NAME":"NUSAT-38 (MARIA AGNESI)","OBJECT_ID":"2023-054AA","EPOCH":"2026-07-20T04:51:19.544256","CLASSIFICATION_TYPE":"U","MEAN_MOTION":15.51396045,"ECCENTRICITY":0.00081439,"INCLINATION":97.3019,"RA_OF_ASC_NODE":112.0483,"ARG_OF_PERICENTER":304.861,"MEAN_ANOMALY":55.1876,"EPHEMERIS_TYPE":0,"NORAD_CAT_ID":56202,"ELEMENT_SET_NO":999,"REV_AT_EPOCH":18362,"BSTAR":0.00035080289,"MEAN_MOTION_DOT":0.00020609,"MEAN_MOTION_DDOT":0},{"OBJECT_NAME":"NUSAT-37 (JOAN CLARKE)","OBJECT_ID":"2023-054AB","EPOCH":"2026-07-20T04:03:32.086368","CLASSIFICATION_TYPE":"U","MEAN_MOTION":15.59919576,"ECCENTRICITY":0.00083531,"INCLINATION":97.2588,"RA_OF_ASC_NODE":108.9285,"ARG_OF_PERICENTER":130.4621,"MEAN_ANOMALY":229.7365,"EPHEMERIS_TYPE":0,"NORAD_CAT_ID":56203,"ELEMENT_SET_NO":999,"REV_AT_EPOCH":18378,"BSTAR":0.00042401434,"MEAN_MOTION_DOT":0.00034176,"MEAN_MOTION_DDOT":0},{"OBJECT_NAME":"NUSAT-40 (C SHOEMAKER)","OBJECT_ID":"2023-084M","EPOCH":"2026-07-20T06:44:33.713664","CLASSIFICATION_TYPE":"U","MEAN_MOTION":15.834854,"ECCENTRICITY":0.00036775,"INCLINATION":97.4877,"RA_OF_ASC_NODE":350.6056,"ARG_OF_PERICENTER":179.9155,"MEAN_ANOMALY":180.2116,"EPHEMERIS_TYPE":0,"NORAD_CAT_ID":56943,"ELEMENT_SET_NO":999,"REV_AT_EPOCH":17403,"BSTAR":0.00050156236,"MEAN_MOTION_DOT":0.00109972,"MEAN_MOTION_DDOT":0},{"OBJECT_NAME":"NUSAT-41 (C PAYNE-G)","OBJECT_ID":"2023-084N","EPOCH":"2026-07-20T06:48:19.761984","CLASSIFICATION_TYPE":"U","MEAN_MOTION":15.29981218,"ECCENTRICITY":0.00074206,"INCLINATION":97.5558,"RA_OF_ASC_NODE":338.537,"ARG_OF_PERICENTER":190.3136,"MEAN_ANOMALY":169.7953,"EPHEMERIS_TYPE":0,"NORAD_CAT_ID":56944,"ELEMENT_SET_NO":999,"REV_AT_EPOCH":17284,"BSTAR":0.00021738913,"MEAN_MOTION_DOT":0.00006234,"MEAN_MOTION_DDOT":0},{"OBJECT_NAME":"NUSAT-42 (M WONENBURGER)","OBJECT_ID":"2023-084AL","EPOCH":"2026-07-20T07:17:16.432224","CLASSIFICATION_TYPE":"U","MEAN_MOTION":15.46644675,"ECCENTRICITY":0.00068668,"INCLINATION":97.5759,"RA_OF_ASC_NODE":346.8515,"ARG_OF_PERICENTER":130.607,"MEAN_ANOMALY":229.5777,"EPHEMERIS_TYPE":0,"NORAD_CAT_ID":56966,"ELEMENT_SET_NO":999,"REV_AT_EPOCH":17319,"BSTAR":0.00027552324,"MEAN_MOTION_DOT":0.00013663,"MEAN_MOTION_DDOT":0},{"OBJECT_NAME":"NUSAT-44 (MARIA MITCHELL)","OBJECT_ID":"2024-043AA","EPOCH":"2026-07-20T07:19:42.714336","CLASSIFICATION_TYPE":"U","MEAN_MOTION":15.29910469,"ECCENTRICITY":0.00066553,"INCLINATION":97.5491,"RA_OF_ASC_NODE":342.0766,"ARG_OF_PERICENTER":117.1328,"MEAN_ANOMALY":243.0592,"EPHEMERIS_TYPE":0,"NORAD_CAT_ID":59122,"ELEMENT_SET_NO":999,"REV_AT_EPOCH":13233,"BSTAR":0.00021624618,"MEAN_MOTION_DOT":0.00006187,"MEAN_MOTION_DDOT":0},{"OBJECT_NAME":"NUSAT-50 (NANCY ROMAN)","OBJECT_ID":"2024-149AB","EPOCH":"2026-07-20T04:38:27.513600","CLASSIFICATION_TYPE":"U","MEAN_MOTION":15.30369458,"ECCENTRICITY":0.00048525,"INCLINATION":97.3775,"RA_OF_ASC_NODE":282.2297,"ARG_OF_PERICENTER":90.2689,"MEAN_ANOMALY":269.9108,"EPHEMERIS_TYPE":0,"NORAD_CAT_ID":60493,"ELEMENT_SET_NO":999,"REV_AT_EPOCH":10717,"BSTAR":0.00017503705,"MEAN_MOTION_DOT":0.00005066,"MEAN_MOTION_DDOT":0},{"OBJECT_NAME":"NUSAT-48 (HENRIETTA LEAVITT)","OBJECT_ID":"2024-149AG","EPOCH":"2026-07-20T04:22:51.359232","CLASSIFICATION_TYPE":"U","MEAN_MOTION":15.30323327,"ECCENTRICITY":0.00051834,"INCLINATION":97.3906,"RA_OF_ASC_NODE":282.519,"ARG_OF_PERICENTER":144.2292,"MEAN_ANOMALY":215.9296,"EPHEMERIS_TYPE":0,"NORAD_CAT_ID":60498,"ELEMENT_SET_NO":999,"REV_AT_EPOCH":10718,"BSTAR":0.00016913427,"MEAN_MOTION_DOT":0.00004885,"MEAN_MOTION_DDOT":0},{"OBJECT_NAME":"NUSAT-49 (KLARA DAN VON NEUMANN)","OBJECT_ID":"2024-149AJ","EPOCH":"2026-07-20T03:51:17.187840","CLASSIFICATION_TYPE":"U","MEAN_MOTION":15.29826411,"ECCENTRICITY":0.00028757,"INCLINATION":97.3795,"RA_OF_ASC_NODE":282.2225,"ARG_OF_PERICENTER":156.0413,"MEAN_ANOMALY":204.0962,"EPHEMERIS_TYPE":0,"NORAD_CAT_ID":60500,"ELEMENT_SET_NO":999,"REV_AT_EPOCH":10717,"BSTAR":0.000064046924,"MEAN_MOTION_DOT":0.00001774,"MEAN_MOTION_DDOT":0},{"OBJECT_NAME":"NUSAT-45 (UZMASAT-1)","OBJECT_ID":"2025-009AH","EPOCH":"2026-07-20T05:08:56.131584","CLASSIFICATION_TYPE":"U","MEAN_MOTION":15.2985932,"ECCENTRICITY":0.00022298,"INCLINATION":97.358,"RA_OF_ASC_NODE":282.1148,"ARG_OF_PERICENTER":163.8584,"MEAN_ANOMALY":196.2728,"EPHEMERIS_TYPE":0,"NORAD_CAT_ID":62640,"ELEMENT_SET_NO":999,"REV_AT_EPOCH":8397,"BSTAR":0.00016388514,"MEAN_MOTION_DOT":0.00004663,"MEAN_MOTION_DDOT":0},{"OBJECT_NAME":"NUSAT-52","OBJECT_ID":"2025-276AC","EPOCH":"2026-07-20T03:08:54.042720","CLASSIFICATION_TYPE":"U","MEAN_MOTION":15.2006407,"ECCENTRICITY":0.00017471,"INCLINATION":97.4189,"RA_OF_ASC_NODE":274.1363,"ARG_OF_PERICENTER":245.7874,"MEAN_ANOMALY":114.3179,"EPHEMERIS_TYPE":0,"NORAD_CAT_ID":66692,"ELEMENT_SET_NO":999,"REV_AT_EPOCH":3542,"BSTAR":0.00013087621,"MEAN_MOTION_DOT":0.00002756,"MEAN_MOTION_DDOT":0},{"OBJECT_NAME":"NUSAT-51 (YVONNE BRILL)","OBJECT_ID":"2025-276CC","EPOCH":"2026-07-20T03:08:06.595296","CLASSIFICATION_TYPE":"U","MEAN_MOTION":15.20598094,"ECCENTRICITY":0.00021419,"INCLINATION":97.4195,"RA_OF_ASC_NODE":274.2829,"ARG_OF_PERICENTER":210.919,"MEAN_ANOMALY":149.192,"EPHEMERIS_TYPE":0,"NORAD_CAT_ID":66740,"ELEMENT_SET_NO":999,"REV_AT_EPOCH":3543,"BSTAR":0.00015339271,"MEAN_MOTION_DOT":0.00003293,"MEAN_MOTION_DDOT":0}]}
